NORAD_CAT_ID,OBJECT_NAME,OBJECT_TYPE,EPOCH,MEAN_MOTION,ECCENTRICITY,INCLINATION,RA_OF_ASC_NODE,ARG_OF_PERICENTER,MEAN_ANOMALY,BSTAR,MEAN_MOTION_DOT,MEAN_MOTION_DDOT,TLE_LINE0,TLE_LINE1,TLE_LINE2,SEMIMAJOR_AXIS,PERIOD,APOGEE,PERIGEE,DECAYED
53974.0,STARLINK-5159,PAYLOAD,2024-03-27 21:46:54,15.0884591,0.0001533,53.2142,159.0386,84.2406,275.8761,0.00065268,0.00010116,0.0,0 STARLINK-5159,1 53974U 22125L   24087.90757187  .00010116  00000-0  65268-3 0  9994,2 53974  53.2142 159.0386 0001533  84.2406 275.8761 15.08845910 82158,6917.862,95.437,540.788,538.667,0.0
53974.0,STARLINK-5159,PAYLOAD,2024-03-28 12:05:22,15.0884302,0.0001658,53.2147,156.3638,84.0826,276.0355,0.00026797,3.98e-05,0.0,0 STARLINK-5159,1 53974U 22125L   24088.50373278  .00003980  00000-0  26797-3 0  9991,2 53974  53.2147 156.3638 0001658  84.0826 276.0355 15.08843020 82315,6917.871,95.437,540.883,538.589,0.0
53974.0,STARLINK-5159,PAYLOAD,2024-03-28 13:40:45,15.08843129,0.0001678,53.2146,156.066,83.5116,276.6067,0.00029293,4.377e-05,0.0,0 STARLINK-5159,1 53974U 22125L   24088.56997286  .00004377  00000-0  29293-3 0  9993,2 53974  53.2146 156.0660 0001678  83.5116 276.6067 15.08843129 82253,6917.871,95.437,540.897,538.575,0.0
53974.0,STARLINK-5159,PAYLOAD,2024-03-29 11:56:09,15.08849206,0.0001511,53.2146,151.9024,89.1909,270.9256,0.00024613,3.632e-05,0.0,0 STARLINK-5159,1 53974U 22125L   24089.49732967  .00003632  00000-0  24613-3 0  9993,2 53974  53.2146 151.9024 0001511  89.1909 270.9256 15.08849206 82393,6917.852,95.437,540.763,538.672,0.0
53974.0,STARLINK-5159,PAYLOAD,2024-03-29 21:28:28,15.08841733,0.000146,53.2137,150.1177,85.9452,274.1707,0.00010875,1.443e-05,0.0,0 STARLINK-5159,1 53974U 22125L   24089.89477237  .00001443  00000-0  10875-3 0  9996,2 53974  53.2137 150.1177 0001460  85.9452 274.1707 15.08841733 82454,6917.875,95.437,540.75,538.73,0.0
53974.0,STARLINK-5159,PAYLOAD,2024-03-30 03:50:01,15.08840031,0.000173,53.2157,148.9286,87.3273,272.7917,9.2673e-05,1.187e-05,0.0,0 STARLINK-5159,1 53974U 22125L   24090.15973405  .00001187  00000-0  92673-4 0  9997,2 53974  53.2157 148.9286 0001730  87.3273 272.7917 15.08840031 82568,6917.88,95.438,540.942,538.549,0.0
53974.0,STARLINK-5159,PAYLOAD,2024-03-30 10:11:33,15.08843709,0.0001651,53.2158,147.7391,87.5304,272.5877,0.00016152,2.284e-05,0.0,0 STARLINK-5159,1 53974U 22125L   24090.42469405  .00002284  00000-0  16152-3 0  9993,2 53974  53.2158 147.7391 0001651  87.5304 272.5877 15.08843709 82537,6917.869,95.437,540.876,538.592,0.0
53974.0,STARLINK-5159,PAYLOAD,2024-03-30 21:19:15,15.08844305,0.0001595,53.2153,145.6581,86.0392,274.0782,0.0001598,2.256e-05,0.0,0 STARLINK-5159,1 53974U 22125L   24090.88837412  .00002256  00000-0  15980-3 0  9997,2 53974  53.2153 145.6581 0001595  86.0392 274.0782 15.08844305 82601,6917.867,95.437,540.836,538.629,0.0
53974.0,STARLINK-5159,PAYLOAD,2024-03-31 10:02:20,15.08845288,0.0001676,53.2154,143.2784,95.3562,264.7622,0.0001407,1.952e-05,0.0,0 STARLINK-5159,1 53974U 22125L   24091.41829274  .00001952  00000-0  14070-3 0  9995,2 53974  53.2154 143.2784 0001676  95.3562 264.7622 15.08845288 82759,6917.864,95.437,540.889,538.57,0.0
53974.0,STARLINK-5159,PAYLOAD,2024-04-01 09:53:07,15.08837992,0.0001647,53.2158,138.8172,92.9966,267.1214,8.0727e-05,9.97e-06,0.0,0 STARLINK-5159,1 53974U 22125L   24092.41189655  .00000997  00000-0  80727-4 0  9999,2 53974  53.2158 138.8172 0001647  92.9966 267.1214 15.08837992 82907,6917.887,95.438,540.891,538.612,0.0
53974.0,STARLINK-5159,PAYLOAD,2024-04-02 09:43:54,15.08844282,0.0001558,53.2161,134.3577,93.5472,266.5698,0.00012073,1.634e-05,0.0,0 STARLINK-5159,1 53974U 22125L   24093.40549166  .00001634  00000-0  12073-3 0  9993,2 53974  53.2161 134.3577 0001558  93.5472 266.5698 15.08844282 82988,6917.867,95.437,540.81,538.654,0.0
53974.0,STARLINK-5159,PAYLOAD,2024-04-02 19:16:13,15.08843438,0.0001443,53.2154,132.5744,91.3098,268.8059,4.7957e-05,4.75e-06,0.0,0 STARLINK-5159,1 53974U 22125L   24093.80293319  .00000475  00000-0  47957-4 0  9995,2 53974  53.2154 132.5744 0001443  91.3098 268.8059 15.08843438 83113,6917.87,95.437,540.733,538.737,0.0
53974.0,STARLINK-5159,PAYLOAD,2024-04-03 11:10:05,15.08832627,0.0001518,53.2164,129.6007,94.6225,265.4941,1.3305e-05,-7.6e-07,0.0,0 STARLINK-5159,1 53974U 22125L   24094.46534333 -.00000076  00000-0  13305-4 0  9990,2 53974  53.2164 129.6007 0001518  94.6225 265.4941 15.08832627 83216,6917.903,95.438,540.818,538.718,0.0
53974.0,STARLINK-5159,PAYLOAD,2024-04-03 19:07:01,15.08836362,0.0001536,53.2166,128.1138,94.3054,265.8114,3.6449e-05,2.92e-06,0.0,0 STARLINK-5159,1 53974U 22125L   24094.79654101  .00000292  00000-0  36449-4 0  9995,2 53974  53.2166 128.1138 0001536  94.3054 265.8114 15.08836362 83197,6917.892,95.438,540.819,538.694,0.0
53974.0,STARLINK-5159,PAYLOAD,2024-04-04 09:25:28,15.08843291,0.0001546,53.2168,125.4378,95.7176,264.3992,4.2251e-05,3.85e-06,0.0,0 STARLINK-5159,1 53974U 22125L   24095.39269643  .00000385  00000-0  42251-4 0  9996,2 53974  53.2168 125.4378 0001546  95.7176 264.3992 15.08843291 83351,6917.87,95.437,540.805,538.666,0.0
53974.0,STARLINK-5159,PAYLOAD,2024-04-04 18:57:47,15.08842315,0.0001519,53.217,123.6522,86.2555,273.8611,4.4027e-05,4.13e-06,0.0,0 STARLINK-5159,1 53974U 22125L   24095.79013639  .00000413  00000-0  44027-4 0  9997,2 53974  53.2170 123.6522 0001519  86.2555 273.8611 15.08842315 83349,6917.873,95.437,540.789,538.687,0.0
53974.0,STARLINK-5159,PAYLOAD,2024-04-05 09:16:16,15.08839573,0.000146,53.2162,120.9753,84.3774,275.7384,8.6854e-05,1.095e-05,0.0,0 STARLINK-5159,1 53974U 22125L   24096.38629774  .00001095  00000-0  86854-4 0  9997,2 53974  53.2162 120.9753 0001460  84.3774 275.7384 15.08839573 83433,6917.882,95.438,540.757,538.737,0.0
53974.0,STARLINK-5159,PAYLOAD,2024-04-05 18:48:34,15.08839829,0.0001489,53.2163,119.1918,84.937,275.1792,7.726e-05,9.42e-06,0.0,0 STARLINK-5159,1 53974U 22125L   24096.78373786  .00000942  00000-0  77260-4 0  9991,2 53974  53.2163 119.1918 0001489  84.9370 275.1792 15.08839829 83561,6917.881,95.438,540.776,538.716,0.0
53974.0,STARLINK-5159,PAYLOAD,2024-04-06 07:31:39,15.08841703,0.0001474,53.2156,116.8133,85.9976,274.1185,4.6594e-05,4.54e-06,0.0,0 STARLINK-5159,1 53974U 22125L   24097.31365726  .00000454  00000-0  46594-4 0  9990,2 53974  53.2156 116.8133 0001474  85.9976 274.1185 15.08841703 83573,6917.875,95.437,540.76,538.72,0.0
53974.0,STARLINK-5159,PAYLOAD,2024-04-06 18:39:21,15.08841281,0.0001433,53.2156,114.7319,85.3049,274.8107,1.455e-05,-5.6e-07,0.0,0 STARLINK-5159,1 53974U 22125L   24097.77733787 -.00000056  00000-0  14550-4 0  9992,2 53974  53.2156 114.7319 0001433  85.3049 274.8107 15.08841281 83646,6917.876,95.437,540.733,538.75,0.0
53974.0,STARLINK-5159,PAYLOAD,2024-04-07 07:22:27,15.08836316,0.0001469,53.2158,112.3521,89.0938,271.0222,-7.4329e-06,-4.06e-06,0.0,0 STARLINK-5159,1 53974U 22125L   24098.30726241 -.00000406  00000-0 -74329-5 0  9990,2 53974  53.2158 112.3521 0001469  89.0938 271.0222 15.08836316 83723,6917.892,95.438,540.773,538.74,0.0
53974.0,STARLINK-5159,PAYLOAD,2024-04-07 20:05:32,15.08839058,0.0001375,53.2165,109.9716,103.3819,256.7326,1.0775e-05,-1.16e-06,0.0,0 STARLINK-5159,1 53974U 22125L   24098.83717943 -.00000116  00000-0  10775-4 0  9998,2 53974  53.2165 109.9716 0001375 103.3819 256.7326 15.08839058 83803,6917.883,95.438,540.699,538.797,0.0
53974.0,STARLINK-5159,PAYLOAD,2024-04-08 04:02:27,15.08840418,0.0001446,53.2161,108.4851,95.3144,264.8013,3.9861e-05,3.46e-06,0.0,0 STARLINK-5159,1 53974U 22125L   24099.16837889  .00000346  00000-0  39861-4 0  9998,2 53974  53.2161 108.4851 0001446  95.3144 264.8013 15.08840418 83921,6917.879,95.438,540.744,538.744,0.0
53974.0,STARLINK-5159,PAYLOAD,2024-04-08 07:13:14,15.08840787,0.0001486,53.2163,107.8899,98.254,261.8621,5.7036e-05,6.2e-06,0.0,0 STARLINK-5159,1 53974U 22125L   24099.30085790  .00000620  00000-0  57036-4 0  9999,2 53974  53.2163 107.8899 0001486  98.2540 261.8621 15.08840787 83879,6917.878,95.438,540.771,538.715,0.0
53974.0,STARLINK-5159,PAYLOAD,2024-04-09 00:42:28,15.08837742,0.0001445,53.216,104.6189,97.813,262.3027,7.208e-05,8.59e-06,0.0,0 STARLINK-5159,1 53974U 22125L   24100.02949962  .00000859  00000-0  72080-4 0  9991,2 53974  53.2160 104.6189 0001445  97.8130 262.3027 15.08837742 83983,6917.887,95.438,540.752,538.753,0.0
53974.0,STARLINK-5159,PAYLOAD,2024-04-09 07:04:01,15.08839859,0.0001404,53.2159,103.4304,94.0362,266.079,8.8893e-05,1.127e-05,0.0,0 STARLINK-5159,1 53974U 22125L   24100.29445827  .00001127  00000-0  88893-4 0  9999,2 53974  53.2159 103.4304 0001404  94.0362 266.0790 15.08839859 84090,6917.881,95.438,540.717,538.775,0.0
53974.0,STARLINK-5159,PAYLOAD,2024-04-09 16:36:20,15.08838459,0.000139,53.2159,101.6464,92.9436,267.1715,4.843e-05,4.83e-06,0.0,0 STARLINK-5159,1 53974U 22125L   24100.69190072  .00000483  00000-0  48430-4 0  9999,2 53974  53.2159 101.6464 0001390  92.9436 267.1715 15.08838459 84083,6917.885,95.438,540.712,538.789,0.0
53974.0,STARLINK-5159,PAYLOAD,2024-04-10 03:44:02,15.08833971,0.0001453,53.2165,99.5648,92.9589,267.1569,-1.3627e-05,-5.05e-06,0.0,0 STARLINK-5159,1 53974U 22125L   24101.15558657 -.00000505  00000-0 -13627-4 0  9995,2 53974  53.2165  99.5648 0001453  92.9589 267.1569 15.08833971 84225,6917.899,95.438,540.769,538.759,0.0
53974.0,STARLINK-5159,PAYLOAD,2024-04-10 10:05:35,15.08836314,0.0001491,53.2168,98.3771,96.5718,263.5444,-1.0265e-06,-3.04e-06,0.0,0 STARLINK-5159,1 53974U 22125L   24101.42054530 -.00000304  00000-0 -10265-5 0  9999,2 53974  53.2168  98.3771 0001491  96.5718 263.5444 15.08836314 84190,6917.892,95.438,540.788,538.725,0.0
53974.0,STARLINK-5159,PAYLOAD,2024-04-10 16:27:07,15.08833917,0.0001465,53.2167,97.1875,95.8776,264.2383,-1.4151e-05,-5.13e-06,0.0,0 STARLINK-5159,1 53974U 22125L   24101.68550777 -.00000513  00000-0 -14151-4 0  9990,2 53974  53.2167  97.1875 0001465  95.8776 264.2383 15.08833917 84239,6917.899,95.438,540.777,538.751,0.0
